Satellite: CHASQUI-1
Catalog number: 40117
Epoch time:      14310.69283273
Element set:     256
Inclination:      051.6422 deg
RA of node:       110.3105 deg
Eccentricity:    0.0006623
Arg of perigee:   263.2485 deg
Mean anomaly:     194.0704 deg
Mean motion:   15.62871441 rev/day
Decay rate:    1.25244e-03 rev/day^2
Epoch rev:            1244
Checksum:              254

/EX



From ray.hoad at mypbmail.com  Fri Nov  7 00:11:28 2014
From: ray.hoad at mypbmail.com (Ray Hoad)
Date: Thu, 6 Nov 2014 18:11:28 -0600
Subject: [keps] orb14310.2l.amsat
Message-ID: <ED1C3D117C8444AD8DE3EF8CF9CA5644@ray45af0265077>

SB KEPS @ AMSAT  $ORB14310.N
2Line Orbital Elements 14310.AMSAT

HR AMSAT ORBITAL ELEMENTS FOR AMATEUR SATELLITES IN NASA FORMAT
FROM WA5QGD FORT WORTH,TX November 6, 2014
BID: ORB14310.N

DECODE 2-LINE ELSETS WITH THE FOLLOWING KEY:
1 AAAAAU 00  0  0 BBBBB.BBBBBBBB  .CCCCCCCC  00000-0  00000-0 0  DDDZ
2 AAAAA EEE.EEEE FFF.FFFF GGGGGGG HHH.HHHH III.IIII JJ.JJJJJJJJKKKKKZ
KEY: A-CATALOGNUM B-EPOCHTIME C-DECAY D-ELSETNUM E-INCLINATION F-RAAN
G-ECCENTRICITY H-ARGPERIGEE I-MNANOM J-MNMOTION K-ORBITNUM Z-CHECKSUM

TO ALL RADIO AMATEURS BT

AO-07
1 07530U 74089B   14309.86930623 -.00000046  00000-0 -15566-4 0  1123
2 07530 101.4915 287.1246 0012160 020.0599 047.4354 12.53608701829271
FO-29
1 24278U 96046B   14309.97804657 -.00000035  00000-0  35403-5 0  5110
2 24278 098.5166 304.2766 0349425 289.7877 120.8904 13.53035406899845
SO-33
1 25509U 98061B   14310.44718072  .00000609  00000-0  10599-3 0  8763
2 25509 031.4345 074.2421 0349017 280.8601 146.5060 14.29727100837522
RS-22
1 27939U 03042A   14310.88229979  .00001291  00000-0  24644-3 0   157
2 27939 097.8190 118.0574 0013721 018.6080 341.5631 14.65477659593621
HO-68
1 36122U 09072B   14310.69789142 -.00000060  00000-0 -43517-4 0   945
2 36122 100.2311 358.1129 0007390 271.7684 088.2581 13.16319652235185
AO-73
1 39444U 13066AE  14309.73262861  .00002928  00000-0  39108-3 0  3014
2 39444 097.7617 015.5055 0062277 142.6080 217.9490 14.78933125 50380
EO-79
1 40025U 14033R   14310.68937943  .00003278  00000-0  38282-3 0  4137
2 40025 097.9688 205.5564 0012631 187.0115 173.0936 14.85796264 20747
UO-11
1 14781U 84021B   14310.11653863  .00000807  00000-0  10858-3 0  6568
2 14781 097.8344 007.3568 0009960 082.8507 277.3838 14.81869047648982
AO-16
1 20439U 90005D   14308.45222940  .00000174  00000-0  80217-4 0  1644
2 20439 098.5196 243.2153 0012077 104.6445 032.4863 14.32418117294563
LO-19
1 20442U 90005G   14310.41746317  .00000198  00000-0  88753-4 0  1016
2 20442 098.4910 245.3732 0013060 088.9007 271.3673 14.32617976295048
AO-27
1 22825U 93061C   14310.11681954  .00000159  00000-0  79380-4 0  8133
2 22825 098.6799 255.5457 0007532 236.7891 189.8787 14.29774529101061
IO-26
1 22826U 93061D   14309.43949021  .00000154  00000-0  76771-4 0  5705
2 22826 098.6739 255.0684 0008159 231.0175 129.0281 14.30080185101102
GO-32
1 25397U 98043D   14309.86795181  .00000086  00000-0  56178-4 0  4914
2 25397 098.4893 262.7001 0000472 184.0232 233.2958 14.23478722848024
NO-44
1 26931U 01043C   14309.52115608  .00000140  00000-0  86044-4 0  7454
2 26931 067.0535 033.9850 0007586 273.1110 086.9123 14.30183401683818
SO-50
1 27607U 02058C   14310.63967075  .00001334  00000-0  19495-3 0  5694
2 27607 064.5555 158.0158 0064058 333.8617 025.9755 14.74091982638472
CO-55
1 27844U 03031E   14309.54666896  .00000256  00000-0  13684-3 0   639
2 27844 098.6981 316.2889 0009164 221.6773 252.4882 14.21605263588667
CO-57
1 27848U 03031J   14310.56997644  .00000263  00000-0  14068-3 0    67
2 27848 098.7077 317.0860 0009028 225.5599 255.1211 14.21280577588724
AO-51
1 28375U 04025K   14310.44004906  .00000327  00000-0  11032-3 0  9860
2 28375 098.2675 252.6150 0081646 282.5501 076.6565 14.41486239544395
CP3
1 31129U 07012N   14310.47389398  .00001637  00000-0  36694-3 0  8926
2 31129 097.9519 281.3984 0096332 288.0541 187.7815 14.55086743400727
CO-65
1 32785U 08021C   14309.81855133  .00001915  00000-0  22580-3 0  1096
2 32785 097.6816 356.3583 0015150 084.9533 329.8684 14.85802864353053
PRISM
1 33493U 09002B   14310.79275102  .00005857  00000-0  60231-3 0  4596
2 33493 098.2513 132.6695 0017232 342.3044 017.7588 14.90631344313412
SOHLA-1
1 33496U 09002E   14310.42872815  .00000675  00000-0  11838-3 0  5080
2 33496 098.1871 071.8637 0007311 144.6077 255.6633 14.70991318310427
TISAT-1
1 36799U 10035E   14310.23974392  .00003786  00000-0  43328-3 0  7019
2 36799 098.0193 043.3651 0013053 213.9128 198.7866 14.86538892233812
STUDSAT
1 36801U 10035G   14310.19678177  .00020931  00000-0  16552-2 0  9268
2 36801 098.0476 054.4485 0006477 180.7839 239.5232 15.00649307234396
ALMASAT-1
1 38078U 12006B   14309.75811045  .00072286  39389-5  14039-2 0  2032
2 38078 069.4663 075.8661 0560566 203.2215 154.2942 14.58718050142214
XATCOBEO
1 38082U 12006F   14243.34478676  .13583328  43697-5  37939-3 0  5637
2 38082 069.3815 097.0364 0033293 225.1799 135.4582 16.41261006136239
CUBEBUG-1
1 39153U 13018D   14310.46967806  .00002457  00000-0  34562-3 0  6234
2 39153 098.0348 030.4518 0016659 250.3276 109.6138 14.78185515 82562
ESTCUBE-1
1 39161U 13021C   14310.81136781  .00001941  00000-0  32910-3 0  6362
2 39161 098.0874 030.6189 0008827 308.8080 051.2321 14.70366966 80557
DUCHIFAT-1
1 40021U 14033M   14310.67328856  .00004452  00000-0  51358-3 0  4155
2 40021 097.9696 205.6064 0012986 189.0731 171.0306 14.86106504 20738
NANOSATCBR1
1 40024U 14033Q   14310.68443210  .00004003  00000-0  46448-3 0  4067
2 40024 097.9692 205.5644 0012319 187.9374 172.1690 14.85930602 20731
DTUSAT-2
1 40030U 14033W   14310.65693968  .00003276  00000-0  38610-3 0  4050
2 40030 097.9647 205.4272 0012164 178.5648 181.5551 14.85417838 20733
ANTELSAT
1 40034U 14033AA  14310.66497177  .00002417  00000-0  38472-3 0  4130
2 40034 097.9610 202.4178 0062271 111.2840 249.5069 14.71635886 20550
MET-2/21
1 22782U 93055A   14309.87707381  .00000114  00000-0  89798-4 0  2186
2 22782 082.5515 060.8755 0021726 224.7857 253.6264 13.83750813 69713
OKEAN-4
1 23317U 94066A   14310.13698682  .00001797  00000-0  20288-3 0  7011
2 23317 082.5365 294.8120 0019939 354.2317 131.9891 14.85882558 84186
NOAA-14
1 23455U 94089A   14310.45877750  .00000089  00000-0  69487-4 0  9671
2 23455 098.7705 031.3158 0009135 001.3897 129.0043 14.13997451 24058
NOAA-15
1 25338U 98030A   14310.54632567  .00000173  00000-0  91815-4 0  4093
2 25338 098.7623 304.2008 0011770 095.6349 022.3823 14.25499106857121
RESURS
1 25394U 98043A   14309.83725753  .00000033  00000-0  32498-4 0  8012
2 25394 098.4340 268.3775 0001477 159.5624 257.7088 14.24411594848486
FENGYUN1
1 25730U 99025A   14310.13370596  .00002218  00000-0  12245-2 0  2908
2 25730 098.9248 270.4503 0023106 067.3025 060.8715 14.12369341797559
OKEAN-0
1 25860U 99039A   14310.53969502  .00000924  00000-0  14322-3 0  4107
2 25860 098.0637 273.7245 0001135 084.6316 034.5726 14.75527412823147
NOAA-16
1 26536U 00055A   14310.47808769  .00000006  00000-0  27472-4 0  9071
2 26536 098.9736 011.3382 0011396 139.6879 220.5139 14.13051606728205
NOAA-17
1 27453U 02032A   14310.47279142  .00000188  00000-0  98118-4 0  7944
2 27453 098.3231 302.7541 0012924 115.5968 244.6549 14.24806847642947
NOAA-18
1 28654U 05018A   14310.53556547  .00000175  00000-0  12090-3 0  3204
2 28654 099.1650 293.0084 0013721 221.8295 250.7476 14.12090871487650
NOAA-19
1 33591U 09005A   14310.52235608  .00000121  00000-0  90634-4 0  4507
2 33591 098.9618 255.2334 0015045 079.1685 022.1578 14.11798519296074
HUBBLE
1 20580U 90037B   14310.11474785  .00003211  00000-0  20267-3 0  1517
2 20580 028.4689 183.7777 0003256 008.1976 127.6178 15.06097452146137
ISS
1 25544U 98067A   14310.74240478  .00014161  00000-0  24688-3 0  3724
2 25544 051.6453 112.8991 0004174 003.5884 092.7617 15.50990467913440
CO-58
1 28895U 05043F   14309.53989936  .00000893  00000-0  18600-3 0  9159
2 28895 097.8240 144.0289 0016067 284.8003 075.1419 14.62164978480903
FALCON
1 30776U 07006E   14309.46782177  .00011057  00000-0  52384-3 0  9972
2 30776 035.4292 317.8378 0002141 161.8048 324.0745 15.18602562422204
MAST
1 31126U 07012K   14310.53096882  .00000850  00000-0  19514-3 0  1979
2 31126 097.9325 284.1461 0090254 270.2615 212.8148 14.55552714401098
CAPE1
1 31130U 07012P   14309.84869845  .00001452  00000-0  32855-3 0  2022
2 31130 097.9532 280.3354 0096981 291.5987 067.4900 14.54808273400400
COMPASS
1 32787U 08021E   14310.43368555  .00003664  00000-0  39638-3 0   932
2 32787 097.6844 359.8230 0014950 074.0201 286.2662 14.88795542353343
AAUSAT2
1 32788U 08021F   14310.43387305  .00004416  00000-0  46716-3 0   815
2 32788 097.6857 000.9909 0014423 072.2750 288.0040 14.89602132353410
DO-64
1 32789U 08021G   14310.12454909  .00010041  00000-0  91398-3 0  1253
2 32789 097.7056 008.6401 0012660 057.9182 000.5974 14.95314146353690
CO-66
1 32791U 08021J   14310.12124783  .00003242  00000-0  36469-3 0   746
2 32791 097.6835 357.9739 0015634 078.9031 281.3943 14.87266941353146
RS-30
1 32953U 08025A   14310.85272993  .00000010  00000-0 -13620-7 0  4414
2 32953 082.4967 112.5081 0018663 203.8925 156.1292 12.43052185292988
METEOR-M
1 35865U 09049A   14310.71831450  .00000140  00000-0  82745-4 0   498
2 35865 098.5327 353.6840 0003340 047.7895 312.3567 14.21946475266590
RS-38
1 35869U 09049E   14310.72473295  .00000130  00000-0  77410-4 0  9550
2 35869 098.5251 353.4236 0005436 044.1165 316.0441 14.22240347266639
JUGNU
1 37839U 11058B   14309.88778636  .00000469  00000-0  10883-3 0  7287
2 37839 019.9622 116.1330 0018905 105.5904 254.6417 14.12362714158603
SRMSAT
1 37841U 11058D   14309.89549698  .00000420  00000-0  86689-4 0  7325
2 37841 019.9710 138.2216 0011847 040.1568 091.3413 14.10395452158380
RAX-2
1 37853U 11061D   14309.88415225  .00007128  00000-0  47378-3 0  9559
2 37853 101.7040 047.2415 0210013 006.2405 103.7809 14.91473931163761
AUBIESAT
1 37854U 11061E   14309.87137740  .00007592  00000-0  48646-3 0  9534
2 37854 101.7084 049.6094 0207442 002.6366 109.9684 14.93025610163833
HRBE
1 37855U 11061F   14310.17793862  .00007110  00000-0  46258-3 0  9749
2 37855 101.7082 049.1916 0209940 003.5106 356.7515 14.92209156163830
RS-39
1 38051U 11062C   14288.65876392  .70201582  12497-4  27925-2 0   413
2 38051 051.5964 324.1908 0006422 269.6897 186.8903 16.43533377153081
E-STAR
1 38079U 12006C   14310.13888059  .00239692  17427-4  16899-2 0   551
2 38079 069.4370 330.2235 0236496 146.9837 214.6369 15.44798415145058
GOLIAT
1 38085U 12006J   14310.87308704  .00198589  12399-4  16364-2 0  5120
2 38085 069.4405 339.4452 0272130 151.1285 269.0743 15.34927985144870
HORYU-2
1 38340U 12025D   14310.15371535  .00002448  00000-0  38813-3 0   149
2 38340 098.2837 269.9301 0013850 086.2962 273.9828 14.73083989132688
RS-40
1 38735U 12041C   14310.80206288  .00000040  00000-0  21992-3 0  7434
2 38735 082.4766 198.6215 0016596 307.9437 052.0134 12.42562869103298
PROITERES
1 38756U 12047B   14310.84638065  .00001431  00000-0  21934-3 0  3807
2 38756 098.2231 041.4694 0011130 292.1076 067.8951 14.75237231116219
BEESAT-3
1 39134U 13015E   14310.62013741  .00014111  00000-0  91535-3 0  7614
2 39134 064.8763 047.1967 0036351 284.2002 075.5579 15.07298558 85108
BEESAT-2
1 39136U 13015G   14310.08747620  .00009295  00000-0  63005-3 0  7434
2 39136 064.8771 049.8573 0036470 284.5901 075.1176 15.06403628 85007
LO-75
1 39382U 13064C   14295.69194059  .07301741  00000-0  36367-2 0  4875
2 39382 040.4713 030.2705 0002289 341.7175 018.4586 16.19795749470823
ZACUBE-1
1 39417U 13066B   14310.44789012  .00002516  00000-0  33937-3 0  4597
2 39417 097.7607 016.1077 0062752 140.6652 219.9142 14.78629417 51711
TRITON-1
1 39427U 13066M   14309.78884620  .00001787  00000-0  30353-3 0  3108
2 39427 097.7485 008.3983 0118204 159.2327 201.3740 14.65803138 51139
DELFIN3XT
1 39428U 13066N   14310.45156230  .00003355  00000-0  57667-3 0  3148
2 39428 097.7478 007.8301 0128007 160.3782 200.2413 14.63976488 51143
GOMX-1
1 39430U 13066Q   14310.74109139  .00002440  00000-0  46641-3 0  9600
2 39430 097.7399 004.6304 0155697 169.5806 190.8687 14.57232777 50975
MO-76
1 39436U 13066W   14310.17611437  .00021991  00000-0  20338-2 0  3961
2 39436 097.7682 021.8313 0024594 138.4601 221.8494 14.94329069 52049
LO-74
1 39440U 13066AA  14309.47136756  .00002118  00000-0  31523-3 0  3052
2 39440 097.7569 012.3659 0084484 149.4765 211.1400 14.73531180 51384
PUCPSAT-1
1 39442U 13066AC  14309.73873087  .00004538  00000-0  50863-3 0  3054
2 39442 097.7677 019.8052 0035221 138.6991 221.6899 14.86871152 50658
SHINAISAT
1 39572U 14009A   14310.51361649  .00377997  67207-4  73995-3 0  3891
2 39572 064.9976 262.1692 0014296 275.4177 084.5360 15.99711902 39565
TEIKYOSAT
1 39576U 14009E   14297.85867254  .09345816  76764-5  25176-3 0  4374
2 39576 064.9818 300.5833 0008491 317.3597 044.3862 16.45008906 37698
CO-77
1 39577U 14009F   14244.78324653  .10543803  76292-5  32273-3 0  3795
2 39577 064.9920 123.7668 0014904 269.7208 091.1897 16.43552757 29380
SPROUT
1 39770U 14029E   14309.85007181  .00002293  00000-0  28864-3 0  1831
2 39770 097.8722 044.8606 0009572 202.9576 157.1208 14.82977193 24523
POPSAT-HIP1
1 40028U 14033U   14310.77198519  .00003379  00000-0  39587-3 0  4308
2 40028 097.9698 205.6682 0013881 183.4106 176.7022 14.85633186 20740
EO-80
1 40032U 14033Y   14310.65903568  .00003079  00000-0  36354-3 0  4180
2 40032 097.9690 205.4387 0012032 179.9728 180.1493 14.85386718 20730
VELOX-1
1 40057U 14034E   14310.80000083  .00003287  00000-0  50200-3 0  4171
2 40057 098.2391 020.2039 0010669 224.9104 135.1227 14.74485452 19094
DAURIA DX 1
1 40071U 14037C   14310.78097840  .00001503  00000-0  20749-3 0  3896
2 40071 098.3870 007.7910 0007449 230.5129 129.5409 14.79748498 17895
UKUBE-1
1 40074U 14037F   14310.77121191  .00003144  00000-0  41451-3 0  3914
2 40074 098.3875 007.9798 0003702 236.0134 124.0700 14.80859758 17904
CHASQUI-1
1 40117U 98067ET  14310.69283273  .00125244  00000-0  13435-2 0  2564
2 40117 051.6422 110.3105 0006623 263.2485 194.0704 15.62871441 12448
/EX



From ray.hoad at mypbmail.com  Thu Nov 13 22:40:17 2014
From: ray.hoad at mypbmail.com (Ray Hoad)
Date: Thu, 13 Nov 2014 16:40:17 -0600
Subject: [keps] Changes to AMSAT KEPs Distribution for 11-13-2014
Message-ID: <1EFD881B92E64A16AA6407BEC835FAB1@ray45af0265077>

The following is an excerpt from AMSAT NEWS SERVICE bulletin, ANS-313.01, 
11-9-2014:

"On Thursday, November 6 at 07:35:49 UT a Dnepr rocket carrying the
primary payload Asnaro-1 and four microsatellites was launched from
Dombarovsky near Yasny. Kosmotras report all spacecraft have been
inserted into their target orbits.

The four Japanese microsatellites are:
- ChubuSat-1 (Kinshachi-1) 437.485 MHz CW/AX.25 (Digipeater uplink
  145.980 MHz)
- TSUBAME 437.250 MHz CW and 437.505 AX.25
- Hodoyoshi-1 467.674 MHz
- QSAT-EOS (Tsukushi) an AX.25 GMSK payload has been reported but
  the frequency is unknown."

Accordingly the KEPs for the following satellites have been added to this 
weeks KEP Distribution:
 HODOYOSHI-1 - Cat# 40299.
 CHUBUSAT-1 - Cat# 40300.
 QSAT-EOS - Cat# 40301.
 TSUBAME - Cat# 40302.

See AMSAT NEWS SERVICE bulletin, ANS-313.01, 11-9-2014 at 
http://www.amsat.org for details. 



From ray.hoad at mypbmail.com  Thu Nov 13 22:40:28 2014
From: ray.hoad at mypbmail.com (Ray Hoad)
Date: Thu, 13 Nov 2014 16:40:28 -0600
Subject: [keps] orb14317.amsat
Message-ID: <FAF08C91E3E942BB8DC157FD60DCE27B@ray45af0265077>

SB KEPS @ AMSAT  $ORB14317.O
Orbital Elements  14317.OSCAR

HR AMSAT ORBITAL ELEMENTS FOR OSCAR SATELLITES
FROM WA5QGD FORT WORTH,TX November 13, 2014
BID: ORB14317.O
TO ALL RADIO AMATEURS BT

